     3.02           N: GNSS NAV DATA    G: GPS              RINEX VERSION / TYPE
GNSS-SDR            jmfriedt            20240817 110130 UTC PGM / RUN BY / DATE 
GPS NAVIGATION MESSAGE FILE GENERATED BY GNSS-SDR           COMMENT             
GNSS-SDR VERSION 0.0.19.git-main-87fcfd237                  COMMENT             
See https://gnss-sdr.org                                    COMMENT             
GPSA    .2235D-07   .1490D-07  -.1192D-06  -.5960D-07       IONOSPHERIC CORR    
GPSB    .1311D+06   .8192D+05  -.1966D+06   .2621D+06       IONOSPHERIC CORR    
GPUT  -.2793967724D-08 -.799360578D-14 147456 2328          TIME SYSTEM CORR    
    18    18   137     7                                    LEAP SECONDS        
                                                            END OF HEADER       
G05 2024 08 17 20 00 00 -.183532480150D-03 -.125055521494D-11  .000000000000D+00
      .690000000000D+02 -.668750000000D+02  .463019286612D-08  .258529910184D+01
     -.356137752533D-05  .594296597410D-02 -.372529029846D-08  .515365987587D+04
      .590400000000D+06  .111758708954D-07  .163990484018D+01 -.484287738800D-07
      .972216393584D+00  .388593750000D+03  .131370375015D+01 -.836427697714D-08
     -.846463830045D-10  .100000000000D+01  .232700000000D+04  .100000000000D+01
      .000000000000D+00  .000000000000D+00 -.107102096081D-07  .690000000000D+02
      .585408000000D+06  .000000000000D+00                                      
G12 2024 08 17 20 00 00 -.531113240868D-03 -.295585778076D-11  .000000000000D+00
      .650000000000D+02 -.113125000000D+02  .489984695544D-08 -.130654229949D+01
     -.575557351112D-06  .866588135250D-02  .594556331635D-05  .515359671783D+04
      .590400000000D+06 -.260770320892D-07 -.138473142481D+01  .208616256714D-06
      .961424208457D+00  .265000000000D+03  .145986756299D+01 -.815891127998D-08
     -.526807657939D-09  .100000000000D+01  .232700000000D+04  .100000000000D+01
      .000000000000D+00  .000000000000D+00 -.125728547573D-07  .650000000000D+02
      .587112000000D+06  .000000000000D+00                                      
G10 2024 08 17 20 00 00 -.969050452113D-04 -.111413100967D-10  .000000000000D+00
      .230000000000D+02 -.708125000000D+02  .422696178421D-08 -.204888435244D+01
     -.382959842682D-05  .953662546817D-02  .746920704842D-06  .515368656921D+04
      .590400000000D+06  .152736902237D-06  .168979234942D+01 -.596046447754D-07
      .984940844797D+00  .374406250000D+03 -.238063915202D+01 -.810462330438D-08
      .678599694973D-10  .100000000000D+01  .232700000000D+04  .100000000000D+01
      .000000000000D+00  .000000000000D+00  .232830643654D-08  .230000000000D+02
      .587142000000D+06  .000000000000D+00                                      
G15 2024 08 17 22 00 00  .193766318262D-03  .432009983342D-11  .000000000000D+00
      .570000000000D+02 -.172531250000D+03  .486163107788D-08  .233098634605D+01
     -.891834497452D-05  .160085842945D-01  .952184200287D-05  .515370221138D+04
      .597600000000D+06  .139698386192D-06  .258024253721D+01 -.212341547012D-06
      .936427963606D+00  .182125000000D+03  .134163900474D+01 -.791032949697D-08
     -.325013538118D-10  .100000000000D+01  .232700000000D+04  .100000000000D+01
      .000000000000D+00  .000000000000D+00 -.102445483208D-07  .570000000000D+02
      .590418000000D+06  .000000000000D+00                                      
G23 2024 08 17 22 00 00  .299619976431D-03  .864019966684D-11  .000000000000D+00
      .540000000000D+02 -.616875000000D+02  .440089760076D-08  .158462509537D+00
     -.314787030220D-05  .455163430888D-02  .154599547386D-06  .515360349274D+04
      .597600000000D+06  .353902578354D-07  .166033489639D+01  .856816768646D-07
      .980070680792D+00  .388000000000D+03 -.296398068684D+01 -.842320800328D-08
     -.432160858377D-10  .100000000000D+01  .232700000000D+04  .100000000000D+01
      .000000000000D+00  .000000000000D+00 -.838190317154D-08  .540000000000D+02
      .590418000000D+06  .000000000000D+00                                      
G17 2024 08 17 22 00 00  .652077607810D-03 -.966338120634D-11  .000000000000D+00
      .630000000000D+02  .690312500000D+02  .384658879729D-08 -.303456692304D+01
      .366568565369D-05  .134790539742D-01  .112354755402D-04  .515378392029D+04
      .597600000000D+06  .130385160446D-06 -.346006525566D+00  .279396772385D-07
      .967911218782D+00  .167468750000D+03 -.131054003035D+01 -.731351892313D-08
     -.442518432669D-09  .100000000000D+01  .232700000000D+04  .100000000000D+01
      .000000000000D+00  .000000000000D+00 -.111758708954D-07  .630000000000D+02
      .590418000000D+06  .000000000000D+00                                      
G22 2024 08 17 22 00 00 -.523398630321D-04 -.409272615798D-11  .000000000000D+00
      .810000000000D+02 -.124375000000D+02  .471841082646D-08 -.247613660096D+01
     -.638887286186D-06  .141801342834D-01  .623427331448D-05  .515368472862D+04
      .597600000000D+06  .134110450745D-06 -.136371381535D+01  .216066837311D-06
      .960197032312D+00  .259781250000D+03 -.112405494318D+01 -.779532470656D-08
     -.579667002600D-09  .100000000000D+01  .232700000000D+04  .100000000000D+01
      .000000000000D+00  .000000000000D+00 -.111758708954D-07  .810000000000D+02
      .590418000000D+06  .000000000000D+00                                      
G14 2024 08 17 22 00 00  .474763568491D-03  .875388650456D-11  .000000000000D+00
      .230000000000D+03 -.157500000000D+02  .527736268048D-08 -.351811052422D+00
     -.106915831566D-05  .480203796178D-02  .555813312531D-05  .515368785095D+04
      .597600000000D+06  .800937414169D-07 -.143055288637D+01  .949949026108D-07
      .944747062313D+00  .264812500000D+03 -.285993115632D+01 -.838142054838D-08
     -.551808699333D-09  .100000000000D+01  .232700000000D+04  .100000000000D+01
      .000000000000D+00  .000000000000D+00 -.791624188423D-08  .486000000000D+03
      .590418000000D+06  .000000000000D+00                                      
G24 2024 08 17 22 00 00 -.486341305077D-03 -.568434188608D-12  .000000000000D+00
      .340000000000D+02  .556250000000D+01  .534629412318D-08  .144016279816D+01
      .305473804474D-06  .156927186763D-01  .986643135548D-05  .515370279503D+04
      .597600000000D+06 -.394880771637D-06 -.259942238362D+01  .745058059692D-07
      .934306725077D+00  .180156250000D+03  .997873293702D+00 -.838284917932D-08
      .592881838765D-09  .100000000000D+01  .232700000000D+04  .100000000000D+01
      .000000000000D+00  .000000000000D+00  .232830643654D-08  .340000000000D+02
      .590658000000D+06  .000000000000D+00                                      
G19 2024 08 17 22 00 00  .525945797563D-03  .511590769747D-11  .000000000000D+00
      .120000000000D+02  .655312500000D+02  .393087802256D-08 -.108798451819D+01
      .343099236488D-05  .998929224443D-02  .111665576696D-04  .515372867966D+04
      .597600000000D+06 -.167638063431D-06 -.301760555093D+00 -.130385160446D-06
      .967139792820D+00  .172312500000D+03  .262638021875D+01 -.763138930657D-08
     -.257867884090D-09  .100000000000D+01  .232700000000D+04  .100000000000D+01
      .000000000000D+00  .000000000000D+00 -.153668224812D-07  .120000000000D+02
      .593868000000D+06  .000000000000D+00                                      
G19 2024 08 17 21 59 44  .525944400579D-03  .511590769747D-11  .000000000000D+00
      .600000000000D+01  .655312500000D+02  .393087802256D-08 -.109031832457D+01
      .343099236488D-05  .998928863555D-02  .111665576696D-04  .515372868919D+04
      .597584000000D+06 -.167638063431D-06 -.301760433670D+00 -.130385160446D-06
      .967139801598D+00  .172312500000D+03  .262638034895D+01 -.763138930657D-08
     -.257867884090D-09  .100000000000D+01  .232700000000D+04  .100000000000D+01
      .000000000000D+00  .000000000000D+00 -.153668224812D-07  .600000000000D+01
      .595956000000D+06  .000000000000D+00                                      
G24 2024 08 18 00 00 00 -.486345496029D-03 -.568434188608D-12  .000000000000D+00
      .630000000000D+02  .101562500000D+02  .520093092536D-08  .249040204912D+01
      .365078449249D-06  .156930559315D-01  .986456871033D-05  .515370066071D+04
      .000000000000D+00 -.372529029846D-08 -.271989680785D+01 -.216066837311D-06
      .934313401835D+00  .172968750000D+03  .997803731948D+00 -.791818696713D-08
      .675028117631D-09  .100000000000D+01  .232800000000D+04  .100000000000D+01
      .000000000000D+00  .000000000000D+00  .232830643654D-08  .630000000000D+02
     -.718200000000D+04  .000000000000D+00                                      
G19 2024 08 17 23 59 44  .525981187820D-03  .511590769747D-11  .000000000000D+00
      .700000000000D+01  .526250000000D+02  .403945397376D-08 -.401474547941D-01
      .260397791862D-05  .999074114952D-02  .112242996693D-04  .515373128891D+04
      .604784000000D+06  .191852450371D-06 -.301814431440D+00 -.156462192535D-06
      .967136508569D+00  .173468750000D+03  .262635194493D+01 -.780675375406D-08
     -.520378818724D-09  .100000000000D+01  .232700000000D+04  .100000000000D+01
      .000000000000D+00  .000000000000D+00 -.153668224812D-07  .700000000000D+01
      .597618000000D+06  .000000000000D+00                                      
G17 2024 08 18 00 00 00  .652008224279D-03 -.966338120634D-11  .000000000000D+00
      .680000000000D+02  .582187500000D+02  .394480717420D-08 -.198439198781D+01
      .307150185108D-05  .134778127540D-01  .112038105726D-04  .515378677559D+04
      .000000000000D+00  .135973095894D-06 -.466474141378D+00  .342726707458D-06
      .967906780288D+00  .169750000000D+03 -.131060737578D+01 -.755031450091D-08
     -.558237538548D-09  .100000000000D+01  .232800000000D+04  .100000000000D+01
      .000000000000D+00  .000000000000D+00 -.111758708954D-07  .680000000000D+02
     -.718200000000D+04  .000000000000D+00                                      
